CCSDS_OMM_VERS = 2.0
CREATION_DATE  = 
ORIGINATOR     = 

OBJECT_NAME    = STARLINK-36797
OBJECT_ID      = 2026-032U
CENTER_NAME    = EARTH
REF_FRAME      = TEME
TIME_SYSTEM    = UTC
MEAN_ELEMENT_THEORY = SGP/SGP4

EPOCH          = 2026-02-23T16:00:03.000096
MEAN_MOTION    = 15.94141905
ECCENTRICITY   = .0001146
INCLINATION    = 97.2831
RA_OF_ASC_NODE = 240.4229
ARG_OF_PERICENTER = 69.7378
MEAN_ANOMALY   = 289.8230

EPHEMERIS_TYPE = 0
CLASSIFICATION_TYPE = U
NORAD_CAT_ID   = 67815
ELEMENT_SET_NO = 999
REV_AT_EPOCH   = 246
BSTAR          = -.49173E-2
MEAN_MOTION_DOT = -.1793967E-1
MEAN_MOTION_DDOT = .90923E-3

CCSDS_OMM_VERS = 2.0
CREATION_DATE  = 
ORIGINATOR     = 

OBJECT_NAME    = STARLINK-36343
OBJECT_ID      = 2026-032V
CENTER_NAME    = EARTH
REF_FRAME      = TEME
TIME_SYSTEM    = UTC
MEAN_ELEMENT_THEORY = SGP/SGP4

EPOCH          = 2026-02-23T16:00:03.000096
MEAN_MOTION    = 15.94381805
ECCENTRICITY   = .0001109
INCLINATION    = 97.2828
RA_OF_ASC_NODE = 240.4240
ARG_OF_PERICENTER = 67.9281
MEAN_ANOMALY   = 296.1538

EPHEMERIS_TYPE = 0
CLASSIFICATION_TYPE = U
NORAD_CAT_ID   = 67816
ELEMENT_SET_NO = 999
REV_AT_EPOCH   = 246
BSTAR          = -.48504E-2
MEAN_MOTION_DOT = -.1792078E-1
MEAN_MOTION_DDOT = .90973E-3

CCSDS_OMM_VERS = 2.0
CREATION_DATE  = 
ORIGINATOR     = 

OBJECT_NAME    = STARLINK-36756
OBJECT_ID      = 2026-032W
CENTER_NAME    = EARTH
REF_FRAME      = TEME
TIME_SYSTEM    = UTC
MEAN_ELEMENT_THEORY = SGP/SGP4

EPOCH          = 2026-02-23T16:00:03.000096
MEAN_MOTION    = 15.95002058
ECCENTRICITY   = .0001179
INCLINATION    = 97.2824
RA_OF_ASC_NODE = 240.4296
ARG_OF_PERICENTER = 68.8092
MEAN_ANOMALY   = 307.2485

EPHEMERIS_TYPE = 0
CLASSIFICATION_TYPE = U
NORAD_CAT_ID   = 67817
ELEMENT_SET_NO = 999
REV_AT_EPOCH   = 252
BSTAR          = -.46542E-2
MEAN_MOTION_DOT = -.1777175E-1
MEAN_MOTION_DDOT = .90154E-3

CCSDS_OMM_VERS = 2.0
CREATION_DATE  = 
ORIGINATOR     = 

OBJECT_NAME    = STARLINK-36346
OBJECT_ID      = 2026-032X
CENTER_NAME    = EARTH
REF_FRAME      = TEME
TIME_SYSTEM    = UTC
MEAN_ELEMENT_THEORY = SGP/SGP4

EPOCH          = 2026-02-23T16:00:03.000096
MEAN_MOTION    = 15.95276053
ECCENTRICITY   = .0001261
INCLINATION    = 97.2822
RA_OF_ASC_NODE = 240.4321
ARG_OF_PERICENTER = 61.0255
MEAN_ANOMALY   = 320.1863

EPHEMERIS_TYPE = 0
CLASSIFICATION_TYPE = U
NORAD_CAT_ID   = 67818
ELEMENT_SET_NO = 999
REV_AT_EPOCH   = 252
BSTAR          = -.45673E-2
MEAN_MOTION_DOT = -.1769743E-1
MEAN_MOTION_DDOT = .89712E-3

CCSDS_OMM_VERS = 2.0
CREATION_DATE  = 
ORIGINATOR     = 

OBJECT_NAME    = STARLINK-36788
OBJECT_ID      = 2026-032Y
CENTER_NAME    = EARTH
REF_FRAME      = TEME
TIME_SYSTEM    = UTC
MEAN_ELEMENT_THEORY = SGP/SGP4

EPOCH          = 2026-02-23T16:00:03.000096
MEAN_MOTION    = 15.94630788
ECCENTRICITY   = .0001314
INCLINATION    = 97.2828
RA_OF_ASC_NODE = 240.4264
ARG_OF_PERICENTER = 67.6078
MEAN_ANOMALY   = 301.1648

EPHEMERIS_TYPE = 0
CLASSIFICATION_TYPE = U
NORAD_CAT_ID   = 67819
ELEMENT_SET_NO = 999
REV_AT_EPOCH   = 246
BSTAR          = -.47808E-2
MEAN_MOTION_DOT = -.1789844E-1
MEAN_MOTION_DDOT = .91E-3

CCSDS_OMM_VERS = 2.0
CREATION_DATE  = 
ORIGINATOR     = 

OBJECT_NAME    = STARLINK-36353
OBJECT_ID      = 2026-032Z
CENTER_NAME    = EARTH
REF_FRAME      = TEME
TIME_SYSTEM    = UTC
MEAN_ELEMENT_THEORY = SGP/SGP4

EPOCH          = 2026-02-23T16:00:03.000096
MEAN_MOTION    = 15.94823942
ECCENTRICITY   = .0001236
INCLINATION    = 97.2825
RA_OF_ASC_NODE = 240.4279
ARG_OF_PERICENTER = 65.7577
MEAN_ANOMALY   = 306.8163

EPHEMERIS_TYPE = 0
CLASSIFICATION_TYPE = U
NORAD_CAT_ID   = 67820
ELEMENT_SET_NO = 999
REV_AT_EPOCH   = 252
BSTAR          = -.47081E-2
MEAN_MOTION_DOT = -.1780811E-1
MEAN_MOTION_DDOT = .90328E-3

CCSDS_OMM_VERS = 2.0
CREATION_DATE  = 
ORIGINATOR     = 

OBJECT_NAME    = STARLINK-36644
OBJECT_ID      = 2026-033A
CENTER_NAME    = EARTH
REF_FRAME      = TEME
TIME_SYSTEM    = UTC
MEAN_ELEMENT_THEORY = SGP/SGP4

EPOCH          = 2026-02-23T16:00:03.000096
MEAN_MOTION    = 15.88330289
ECCENTRICITY   = .0001815
INCLINATION    = 42.9991
RA_OF_ASC_NODE = 357.5120
ARG_OF_PERICENTER = 258.4172
MEAN_ANOMALY   = 13.9863

EPHEMERIS_TYPE = 0
CLASSIFICATION_TYPE = U
NORAD_CAT_ID   = 67821
ELEMENT_SET_NO = 999
REV_AT_EPOCH   = 241
BSTAR          = -.66583E-2
MEAN_MOTION_DOT = -.1661614E-1
MEAN_MOTION_DDOT = 0

CCSDS_OMM_VERS = 2.0
CREATION_DATE  = 
ORIGINATOR     = 

OBJECT_NAME    = STARLINK-36643
OBJECT_ID      = 2026-033B
CENTER_NAME    = EARTH
REF_FRAME      = TEME
TIME_SYSTEM    = UTC
MEAN_ELEMENT_THEORY = SGP/SGP4

EPOCH          = 2026-02-23T16:00:03.000096
MEAN_MOTION    = 15.88557034
ECCENTRICITY   = .0001705
INCLINATION    = 42.9991
RA_OF_ASC_NODE = 357.5053
ARG_OF_PERICENTER = 254.8264
MEAN_ANOMALY   = 20.2151

EPHEMERIS_TYPE = 0
CLASSIFICATION_TYPE = U
NORAD_CAT_ID   = 67822
ELEMENT_SET_NO = 999
REV_AT_EPOCH   = 241
BSTAR          = -.65069E-2
MEAN_MOTION_DOT = -.1644973E-1
MEAN_MOTION_DDOT = 0

CCSDS_OMM_VERS = 2.0
CREATION_DATE  = 
ORIGINATOR     = 

OBJECT_NAME    = STARLINK-36646
OBJECT_ID      = 2026-033C
CENTER_NAME    = EARTH
REF_FRAME      = TEME
TIME_SYSTEM    = UTC
MEAN_ELEMENT_THEORY = SGP/SGP4

EPOCH          = 2026-02-23T16:00:03.000096
MEAN_MOTION    = 15.88743083
ECCENTRICITY   = .0001752
INCLINATION    = 42.9991
RA_OF_ASC_NODE = 357.4977
ARG_OF_PERICENTER = 254.2891
MEAN_ANOMALY   = 23.7710

EPHEMERIS_TYPE = 0
CLASSIFICATION_TYPE = U
NORAD_CAT_ID   = 67823
ELEMENT_SET_NO = 999
REV_AT_EPOCH   = 241
BSTAR          = -.64061E-2
MEAN_MOTION_DOT = -.1636233E-1
MEAN_MOTION_DDOT = 0

CCSDS_OMM_VERS = 2.0
CREATION_DATE  = 
ORIGINATOR     = 

OBJECT_NAME    = STARLINK-36647
OBJECT_ID      = 2026-033D
CENTER_NAME    = EARTH
REF_FRAME      = TEME
TIME_SYSTEM    = UTC
MEAN_ELEMENT_THEORY = SGP/SGP4

EPOCH          = 2026-02-23T16:00:03.000096
MEAN_MOTION    = 15.88954245
ECCENTRICITY   = .0001771
INCLINATION    = 42.9991
RA_OF_ASC_NODE = 357.4909
ARG_OF_PERICENTER = 251.3831
MEAN_ANOMALY   = 29.3552

EPHEMERIS_TYPE = 0
CLASSIFICATION_TYPE = U
NORAD_CAT_ID   = 67824
ELEMENT_SET_NO = 999
REV_AT_EPOCH   = 241
BSTAR          = -.62861E-2
MEAN_MOTION_DOT = -.1624665E-1
MEAN_MOTION_DDOT = 0

CCSDS_OMM_VERS = 2.0
CREATION_DATE  = 
ORIGINATOR     = 

OBJECT_NAME    = STARLINK-36648
OBJECT_ID      = 2026-033E
CENTER_NAME    = EARTH
REF_FRAME      = TEME
TIME_SYSTEM    = UTC
MEAN_ELEMENT_THEORY = SGP/SGP4

EPOCH          = 2026-02-23T16:00:03.000096
MEAN_MOTION    = 15.89146508
ECCENTRICITY   = .0001653
INCLINATION    = 42.9991
RA_OF_ASC_NODE = 357.4838
ARG_OF_PERICENTER = 258.4298
MEAN_ANOMALY   = 25.1492

EPHEMERIS_TYPE = 0
CLASSIFICATION_TYPE = U
NORAD_CAT_ID   = 67825
ELEMENT_SET_NO = 999
REV_AT_EPOCH   = 241
BSTAR          = -.61849E-2
MEAN_MOTION_DOT = -.161548E-1
MEAN_MOTION_DDOT = 0

CCSDS_OMM_VERS = 2.0
CREATION_DATE  = 
ORIGINATOR     = 

OBJECT_NAME    = STARLINK-35865
OBJECT_ID      = 2026-033F
CENTER_NAME    = EARTH
REF_FRAME      = TEME
TIME_SYSTEM    = UTC
MEAN_ELEMENT_THEORY = SGP/SGP4

EPOCH          = 2026-02-23T16:00:03.000096
MEAN_MOTION    = 15.89351952
ECCENTRICITY   = .0001804
INCLINATION    = 42.9992
RA_OF_ASC_NODE = 357.4773
ARG_OF_PERICENTER = 255.3497
MEAN_ANOMALY   = 30.8045

EPHEMERIS_TYPE = 0
CLASSIFICATION_TYPE = U
NORAD_CAT_ID   = 67826
ELEMENT_SET_NO = 999
REV_AT_EPOCH   = 241
BSTAR          = -.60674E-2
MEAN_MOTION_DOT = -.1603418E-1
MEAN_MOTION_DDOT = 0

